QUETZSAT 1              
1 37826U 11054A   22081.37576024 -.00000243  00000+0  00000+0 0  9992
2 37826   0.0282 305.6576 0002565  62.3848 230.0830  1.00271020 34377
INTELSAT 18 (IS-18)     
1 37834U 11056A   22081.52928104  .00000051  00000+0  00000+0 0  9996
2 37834   0.0377 338.2485 0002075  29.2187 183.0772  1.00273650 38294
EUTELSAT 16A            
1 37836U 11057A   22081.53782639  .00000102  00000+0  00000+0 0  9998
2 37836   0.0689 357.2341 0005110  12.3607  20.0329  1.00272822 30444
VIASAT-1                
1 37843U 11059A   22081.58239267 -.00000025  00000+0  00000+0 0  9992
2 37843   0.0189 201.1585 0002382 167.3282 266.1007  1.00270227 31806
ASIASAT 7               
1 37933U 11069A   22081.50180171 -.00000336  00000+0  00000+0 0  9999
2 37933   0.0095 203.2669 0001698 129.2770 133.5812  1.00272640 37949
BEIDOU 10               
1 37948U 11073A   22081.55335120 -.00000133  00000+0  00000+0 0  9996
2 37948  50.4799 290.3176 0076902 217.8153 327.0139  1.00272575 37886
LUCH 5A                 
1 37951U 11074B   22081.65282568 -.00000048  00000+0  00000+0 0  9994
2 37951   4.7988  99.3773 0003628 282.7541 199.9897  1.00270680 37678
NIGCOMSAT 1R            
1 38014U 11077A   22081.25601813  .00000143  00000+0  00000+0 0  9997
2 38014   0.0459  72.1447 0003398 324.7212 277.4922  1.00270906 37430
FENGYUN 2F              
1 38049U 12002A   22081.56938250 -.00000359  00000+0  00000+0 0  9996
2 38049   3.5796  80.3154 0005002   4.6986  52.1927  1.00270296 37369
WGS F4 (USA 233)        
1 38070U 12003A   22081.56743365 -.00000217  00000+0  00000+0 0  9995
2 38070   0.0141 176.3158 0000711 286.9523   9.4450  1.00270157 28635
SES-4                   
1 38087U 12007A   22081.34285314 -.00000170  00000+0  00000+0 0  9996
2 38087   0.0207 267.1523 0002500 105.4644 268.6132  1.00270592 36715
BEIDOU 11               
1 38091U 12008A   22081.54637375  .00000054  00000+0  00000+0 0  9992
2 38091   1.3714  64.8944 0014350 318.0696  52.4766  1.00278320 36967
MUOS-1                  
1 38093U 12009A   22081.59392612 -.00000128  00000+0  00000+0 0  9995
2 38093   2.8409  29.6617 0058691 357.9492 266.2386  1.00273447 36928
INTELSAT 22 (IS-22)     
1 38098U 12011A   22081.40532719 -.00000061  00000+0  00000+0 0  9993
2 38098   0.0174 219.1779 0002814 150.8841  27.8337  1.00272594 36290
APSTAR 7                
1 38107U 12013A   22081.13521705 -.00000103  00000+0  00000+0 0  9996
2 38107   0.0380 111.0123 0001807 279.0335 274.7398  1.00270693 36283
YAHSAT 1B               
1 38245U 12016A   22081.51438258  .00000124  00000+0  00000+0 0  9996
2 38245   0.0152 137.9887 0001571 265.6044   9.1651  1.00272437 36407
AEHF-2 (USA 235)        
1 38254U 12019A   22081.51584741 -.00000160  00000+0  00000+0 0  9999
2 38254   3.1657  60.0877 0003675 295.0582 276.3598  1.00271614 35332
JCSAT-13                
1 38331U 12023A   22081.48758873 -.00000359  00000+0  00000+0 0  9995
2 38331   0.0164 232.5268 0002483 145.3861 101.5670  1.00271674 36012
VINASAT-2               
1 38332U 12023B   22081.48104922 -.00000331  00000+0  00000+0 0  9996
2 38332   0.0134 161.0855 0002578 230.6991  93.1914  1.00268651 31142
NIMIQ 6                 
1 38342U 12026A   22081.51645793 -.00000176  00000+0  00000+0 0  9997
2 38342   0.0133 112.1625 0002697 254.5263 268.1210  1.00272092 34907
CHINASAT 2A (ZX 2A)     
1 38352U 12028A   22081.44980089 -.00000295  00000+0  00000+0 0  9994
2 38352   0.0475 348.3882 0003427  39.7002  51.9982  1.00270466 35853
INTELSAT 19 (IS-19)     
1 38356U 12030A   22081.61562493 -.00000059  00000+0  00000+0 0  9993
2 38356   0.0129 239.5947 0003116 133.1766 194.9368  1.00271594 34923
ECHOSTAR 17             
1 38551U 12035A   22081.58918250 -.00000077  00000+0  00000+0 0  9997
2 38551   0.0182 170.0112 0001903 197.2266 277.8318  1.00270465 35541
METEOSAT-10 (MSG-3)     
1 38552U 12035B   22081.29216076  .00000061  00000+0  00000+0 0  9995
2 38552   1.4050  35.3095 0000579 253.1608   5.8890  1.00277535 35330
SES-5                   
1 38652U 12036A   22081.32038510  .00000032  00000+0  00000+0 0  9994
2 38652   0.0634 294.4394 0002012  70.4515 295.2171  1.00271912 28966
TIANLIAN 1-03           
1 38730U 12040A   22081.25165720  .00000124  00000+0  00000+0 0  9994
2 38730   1.7938  92.5241 0007123 316.3387 241.8204  1.00273177 35465
INTELSAT 20 (IS-20)     
1 38740U 12043A   22080.66587919 -.00000025  00000+0  00000+0 0  9991
2 38740   0.0171 138.0622 0001108  52.4605 296.8349  1.00271014 35226
HYLAS 2                 
1 38741U 12043B   22081.25375045  .00000153  00000+0  00000+0 0  9994
2 38741   0.0173 247.5824 0001930 120.9532 293.5869  1.00273260 35240
INTELSAT 21 (IS-21)     
1 38749U 12045A   22081.52308652 -.00000287  00000+0  00000+0 0  9993
2 38749   0.0201 165.1325 0002196 215.3283 289.8527  1.00269168 35014
ASTRA 2F                
1 38778U 12051A   22081.23243875  .00000148  00000+0  00000+0 0  9990
2 38778   0.0585 232.7215 0001620  50.4911   8.3560  1.00273230 25607
GSAT-10                 
1 38779U 12051B   22081.56317410 -.00000168  00000+0  00000+0 0  9997
2 38779   0.0505 255.9117 0001240   5.6382 204.2356  1.00272223 34599
INTELSAT 23 (IS-23)     
1 38867U 12057A   22081.52404591 -.00000287  00000+0  00000+0 0  9996
2 38867   0.0159 155.6252 0000128  84.9177  75.0940  1.00271140 34426
BEIDOU 16               
1 38953U 12059A   22081.57480274 -.00000178  00000+0  00000+0 0  9990
2 38953   1.7729  84.5375 0013284 290.2782  96.2417  1.00271950 34399
LUCH 5B                 
1 38977U 12061A   22081.30327229 -.00000134  00000+0  00000+0 0  9992
2 38977   7.1037  63.2507 0002895 353.1423 216.2508  1.00271919 34654
YAMAL 300K              
1 38978U 12061B   22081.53155137  .00000069  00000+0  00000+0 0  9991
2 38978   0.0005 183.6255 0000150 195.1015 175.5808  1.00271814 34117
STAR ONE C3             
1 38991U 12062A   22081.51968500 -.00000251  00000+0  00000+0 0  9995
2 38991   0.0165 190.3353 0002315 191.6307 270.1193  1.00270631 34242
EUTELSAT 21B            
1 38992U 12062B   22081.53896022  .00000128  00000+0  00000+0 0  9999
2 38992   0.0701 356.7404 0002557  16.3304  22.5619  1.00274647 34313
ECHOSTAR 16             
1 39008U 12065A   22081.52230155 -.00000284  00000+0  00000+0 0  9993
2 39008   0.0206 164.2825 0001928 204.2161 298.0251  1.00269732 34109
CHINASAT 12 (ZX 12)     
1 39017U 12067A   22081.04974723 -.00000208  00000+0  00000+0 0  9994
2 39017   0.0314 119.1550 0002845 254.0491 271.7333  1.00270734 33989
EUTELSAT 70B            
1 39020U 12069A   22081.40515275 -.00000047  00000+0  00000+0 0  9994
2 39020   0.0674 349.3936 0002808 253.2153 153.6606  1.00275228 33986
YAMAL 402               
1 39022U 12070A   22081.54558880  .00000083  00000+0  00000+0 0  9991
2 39022   0.0049 248.2946 0004441 118.5861  64.4454  1.00273199 34083
SKYNET 5D               
1 39034U 12075A   22081.54515270  .00000097  00000+0  00000+0 0  9990
2 39034   0.0733  16.9644 0003899 346.1182  65.9126  1.00273218 33647
MEXSAT 3                
1 39035U 12075B   22081.58239216 -.00000028  00000+0  00000+0 0  9993
2 39035   0.0302  95.6400 0002147 270.3865 268.8712  1.00271879 33663
TDRS 11                 
1 39070U 13004A   22081.53368201  .00000077  00000+0  00000+0 0  9990
2 39070   3.0129 343.6729 0006565  46.3498 167.7085  1.00268866 31179
AMAZONAS 3              
1 39078U 13006A   22080.80479872 -.00000283  00000+0  00000+0 0  9996
2 39078   0.0216 188.2728 0001780 151.5031  68.2378  1.00268568 33440
AZERSPACE 1             
1 39079U 13006B   22081.51993715  .00000131  00000+0  00000+0 0  9994
2 39079   0.0172 181.8315 0001582 217.4602  13.8527  1.00271903 33280
SBIRS GEO-2 (USA 241)   
1 39120U 13011A   22081.53878578  .00000120  00000+0  00000+0 0  9996
2 39120   1.9105  17.2267 0001854 343.7281  33.7090  1.00272724 33029
EUTELSAT 117 WEST A     
1 39122U 13012A   22081.58132972 -.00000015  00000+0  00000+0 0  9999
2 39122   0.0141   8.2011 0002934   5.4994 258.8311  1.00272399 32923
ANIK G1                 
1 39127U 13014A   22081.58812122 -.00000076  00000+0  00000+0 0  9995
2 39127   0.0114 175.5364 0001394 137.9027 331.0325  1.00271270 32739
CHINASAT 11 (ZX 11)     
1 39157U 13020A   22081.44980089 -.00000293  00000+0  00000+0 0  9999
2 39157   0.0169 262.2021 0001717  78.6736  98.8853  1.00270571 32639
EUTELSAT 7B             
1 39163U 13022A   22081.29216076  .00000046  00000+0  00000+0 0  9994
2 39163   0.0670   0.2803 0005994   3.5042 288.1400  1.00271455 32453
WGS F5 (USA 243)        
1 39168U 13024A   22081.52422035 -.00000286  00000+0  00000+0 0  9998
2 39168   0.0081 204.1042 0000517 212.1481 259.9387  1.00270074 31652
SES-6                   
1 39172U 13026A   22081.35535597 -.00000263  00000+0  00000+0 0  9999
2 39172   0.0496 298.3389 0002411  72.5203 256.3986  1.00271242 32207
IRNSS-1A                
1 39199U 13034A   22080.59076880  .00000100  00000+0  00000+0 0  9996
2 39199  32.2344  86.7140 0018487 188.0017 172.0905  1.00273191 31844
MUOS-2                  
1 39206U 13036A   22081.53155038  .00000064  00000+0  00000+0 0  9994
2 39206   2.6385  20.1180 0051789 182.1230 352.0846  1.00273679 31675
ALPHASAT                
1 39215U 13038A   22081.32413547  .00000134  00000+0  00000+0 0  9993
2 39215   2.6806  14.3609 0002025   6.7565 300.2226  1.00272591 28490
INSAT-3D                
1 39216U 13038B   22081.46229976 -.00000158  00000+0  00000+0 0  9997
2 39216   0.0169 234.2090 0001390 152.6205  41.5903  1.00271672 31577
WGS F6 (USA 244)        
1 39222U 13041A   22081.56548135  .00000087  00000+0  00000+0 0  9990
2 39222   0.0157 195.1338 0000301 289.0882 124.1653  1.00269366 30530
ES'HAIL 1               
1 39233U 13044A   22081.25270382  .00000141  00000+0  00000+0 0  9998
2 39233   0.0640   7.2209 0002062   1.6451 287.3064  1.00271356 31110
